[
  {
    "OBJECT_NAME": "STARLINK-4584",
    "OBJECT_ID": "22101AW",
    "EPOCH": "2025-11-11T04:06:29.151072",
    "MEAN_MOTION": 15.08844241,
    "ECCENTRICITY": 0.0001529,
    "INCLINATION": 53.2166,
    "RA_OF_ASC_NODE": 226.1186,
    "ARG_OF_PERICENTER": 85.1789,
    "MEAN_ANOMALY": 274.9378,
    "EPHEMERIS_TYPE": 0,
    "CLASSIFICATION_TYPE": "U",
    "NORAD_CAT_ID": 53571,
    "ELEMENT_SET_NO": 999,
    "REV_AT_EPOCH": 17924,
    "BSTAR": 0.00045857,
    "MEAN_MOTION_DOT": 7.019e-05,
    "MEAN_MOTION_DDOT": 0.0,
    "TLE_LINE1": "1 53571U 22101AW  25315.17117073  .00007019  00000+0  45857-3 0  9998",
    "TLE_LINE2": "2 53571  53.2166 226.1186 0001529  85.1789 274.9378 15.08844241179247",
    "COMMENT": "Grouped by shell and plane from TLE"
  },
  {
    "OBJECT_NAME": "STARLINK-4555",
    "OBJECT_ID": "22101AX",
    "EPOCH": "2025-11-11T03:29:20.877792",
    "MEAN_MOTION": 15.08849011,
    "ECCENTRICITY": 0.0001464,
    "INCLINATION": 53.216,
    "RA_OF_ASC_NODE": 225.9615,
    "ARG_OF_PERICENTER": 103.7878,
    "MEAN_ANOMALY": 256.3277,
    "EPHEMERIS_TYPE": 0,
    "CLASSIFICATION_TYPE": "U",
    "NORAD_CAT_ID": 53572,
    "ELEMENT_SET_NO": 999,
    "REV_AT_EPOCH": 17855,
    "BSTAR": 0.00030962000000000003,
    "MEAN_MOTION_DOT": 4.644e-05,
    "MEAN_MOTION_DDOT": 0.0,
    "TLE_LINE1": "1 53572U 22101AX  25315.14538053  .00004644  00000+0  30962-3 0  9993",
    "TLE_LINE2": "2 53572  53.2160 225.9615 0001464 103.7878 256.3277 15.08849011178555",
    "COMMENT": "Grouped by shell and plane from TLE"
  },
  {
    "OBJECT_NAME": "STARLINK-4559",
    "OBJECT_ID": "22101AZ",
    "EPOCH": "2025-11-11T03:34:40.742688",
    "MEAN_MOTION": 15.08824277,
    "ECCENTRICITY": 0.0001366,
    "INCLINATION": 53.2158,
    "RA_OF_ASC_NODE": 225.9824,
    "ARG_OF_PERICENTER": 82.6548,
    "MEAN_ANOMALY": 277.4599,
    "EPHEMERIS_TYPE": 0,
    "CLASSIFICATION_TYPE": "U",
    "NORAD_CAT_ID": 53574,
    "ELEMENT_SET_NO": 999,
    "REV_AT_EPOCH": 17855,
    "BSTAR": 3.7925e-05,
    "MEAN_MOTION_DOT": 3.15e-06,
    "MEAN_MOTION_DDOT": 0.0,
    "TLE_LINE1": "1 53574U 22101AZ  25315.14908267  .00000315  00000+0  37925-4 0  9991",
    "TLE_LINE2": "2 53574  53.2158 225.9824 0001366  82.6548 277.4599 15.08824277178554",
    "COMMENT": "Grouped by shell and plane from TLE"
  },
  {
    "OBJECT_NAME": "STARLINK-4551",
    "OBJECT_ID": "22101BA",
    "EPOCH": "2025-11-11T00:34:29.534016",
    "MEAN_MOTION": 15.08847337,
    "ECCENTRICITY": 0.0001263,
    "INCLINATION": 53.2167,
    "RA_OF_ASC_NODE": 226.6223,
    "ARG_OF_PERICENTER": 82.3285,
    "MEAN_ANOMALY": 277.7851,
    "EPHEMERIS_TYPE": 0,
    "CLASSIFICATION_TYPE": "U",
    "NORAD_CAT_ID": 53575,
    "ELEMENT_SET_NO": 999,
    "REV_AT_EPOCH": 17922,
    "BSTAR": 8.328e-05,
    "MEAN_MOTION_DOT": 1.038e-05,
    "MEAN_MOTION_DDOT": 0.0,
    "TLE_LINE1": "1 53575U 22101BA  25315.02395294  .00001038  00000+0  83280-4 0  9997",
    "TLE_LINE2": "2 53575  53.2167 226.6223 0001263  82.3285 277.7851 15.08847337179228",
    "COMMENT": "Grouped by shell and plane from TLE"
  },
  {
    "OBJECT_NAME": "STARLINK-4581",
    "OBJECT_ID": "22101BB",
    "EPOCH": "2025-11-11T03:46:38.443296",
    "MEAN_MOTION": 15.08840508,
    "ECCENTRICITY": 0.0001391,
    "INCLINATION": 53.2172,
    "RA_OF_ASC_NODE": 226.0307,
    "ARG_OF_PERICENTER": 83.5829,
    "MEAN_ANOMALY": 276.5322,
    "EPHEMERIS_TYPE": 0,
    "CLASSIFICATION_TYPE": "U",
    "NORAD_CAT_ID": 53576,
    "ELEMENT_SET_NO": 999,
    "REV_AT_EPOCH": 17937,
    "BSTAR": 0.00010701,
    "MEAN_MOTION_DOT": 1.416e-05,
    "MEAN_MOTION_DDOT": 0.0,
    "TLE_LINE1": "1 53576U 22101BB  25315.15738939  .00001416  00000+0  10701-3 0  9996",
    "TLE_LINE2": "2 53576  53.2172 226.0307 0001391  83.5829 276.5322 15.08840508179370",
    "COMMENT": "Grouped by shell and plane from TLE"
  },
  {
    "OBJECT_NAME": "STARLINK-4553",
    "OBJECT_ID": "22101BC",
    "EPOCH": "2025-11-11T00:29:11.057568",
    "MEAN_MOTION": 15.08846904,
    "ECCENTRICITY": 0.0001437,
    "INCLINATION": 53.2174,
    "RA_OF_ASC_NODE": 226.6018,
    "ARG_OF_PERICENTER": 80.4631,
    "MEAN_ANOMALY": 279.6524,
    "EPHEMERIS_TYPE": 0,
    "CLASSIFICATION_TYPE": "U",
    "NORAD_CAT_ID": 53577,
    "ELEMENT_SET_NO": 999,
    "REV_AT_EPOCH": 17935,
    "BSTAR": 0.00012613,
    "MEAN_MOTION_DOT": 1.72e-05,
    "MEAN_MOTION_DDOT": 0.0,
    "TLE_LINE1": "1 53577U 22101BC  25315.02026687  .00001720  00000+0  12613-3 0  9995",
    "TLE_LINE2": "2 53577  53.2174 226.6018 0001437  80.4631 279.6524 15.08846904179358",
    "COMMENT": "Grouped by shell and plane from TLE"
  },
  {
    "OBJECT_NAME": "STARLINK-4556",
    "OBJECT_ID": "22101BD",
    "EPOCH": "2025-11-11T01:48:39.026880",
    "MEAN_MOTION": 15.08856072,
    "ECCENTRICITY": 0.0001537,
    "INCLINATION": 53.2163,
    "RA_OF_ASC_NODE": 226.2334,
    "ARG_OF_PERICENTER": 92.1125,
    "MEAN_ANOMALY": 268.0044,
    "EPHEMERIS_TYPE": 0,
    "CLASSIFICATION_TYPE": "U",
    "NORAD_CAT_ID": 53578,
    "ELEMENT_SET_NO": 999,
    "REV_AT_EPOCH": 17854,
    "BSTAR": 0.00033918,
    "MEAN_MOTION_DOT": 5.117e-05,
    "MEAN_MOTION_DDOT": 0.0,
    "TLE_LINE1": "1 53578U 22101BD  25315.07545170  .00005117  00000+0  33918-3 0  9999",
    "TLE_LINE2": "2 53578  53.2163 226.2334 0001537  92.1125 268.0044 15.08856072178549",
    "COMMENT": "Grouped by shell and plane from TLE"
  },
  {
    "OBJECT_NAME": "STARLINK-4580",
    "OBJECT_ID": "22101BE",
    "EPOCH": "2025-11-11T03:18:43.936992",
    "MEAN_MOTION": 15.08849618,
    "ECCENTRICITY": 0.0001415,
    "INCLINATION": 53.2164,
    "RA_OF_ASC_NODE": 225.9146,
    "ARG_OF_PERICENTER": 98.2324,
    "MEAN_ANOMALY": 261.8829,
    "EPHEMERIS_TYPE": 0,
    "CLASSIFICATION_TYPE": "U",
    "NORAD_CAT_ID": 53579,
    "ELEMENT_SET_NO": 999,
    "REV_AT_EPOCH": 17855,
    "BSTAR": 0.00023732,
    "MEAN_MOTION_DOT": 3.492e-05,
    "MEAN_MOTION_DDOT": 0.0,
    "TLE_LINE1": "1 53579U 22101BE  25315.13800853  .00003492  00000+0  23732-3 0  9996",
    "TLE_LINE2": "2 53579  53.2164 225.9146 0001415  98.2324 261.8829 15.08849618178552",
    "COMMENT": "Grouped by shell and plane from TLE"
  },
  {
    "OBJECT_NAME": "STARLINK-5492",
    "OBJECT_ID": "23013A",
    "EPOCH": "2025-11-11T02:04:10.424064",
    "MEAN_MOTION": 15.02553927,
    "ECCENTRICITY": 0.0001611,
    "INCLINATION": 43.005,
    "RA_OF_ASC_NODE": 225.1994,
    "ARG_OF_PERICENTER": 268.8679,
    "MEAN_ANOMALY": 91.1979,
    "EPHEMERIS_TYPE": 0,
    "CLASSIFICATION_TYPE": "U",
    "NORAD_CAT_ID": 55331,
    "ELEMENT_SET_NO": 999,
    "REV_AT_EPOCH": 15494,
    "BSTAR": 0.0,
    "MEAN_MOTION_DOT": -3.072e-05,
    "MEAN_MOTION_DDOT": 0.0,
    "TLE_LINE1": "1 55331U 23013A   25315.08623176 -.00003072  00000+0 -21235-3 0  9994",
    "TLE_LINE2": "2 55331  43.0050 225.1994 0001611 268.8679  91.1979 15.02553927154946",
    "COMMENT": "Grouped by shell and plane from TLE"
  },
  {
    "OBJECT_NAME": "STARLINK-5493",
    "OBJECT_ID": "23013C",
    "EPOCH": "2025-11-11T03:31:55.406784",
    "MEAN_MOTION": 15.025359,
    "ECCENTRICITY": 0.0001295,
    "INCLINATION": 43.0041,
    "RA_OF_ASC_NODE": 224.795,
    "ARG_OF_PERICENTER": 264.2359,
    "MEAN_ANOMALY": 95.8336,
    "EPHEMERIS_TYPE": 0,
    "CLASSIFICATION_TYPE": "U",
    "NORAD_CAT_ID": 55333,
    "ELEMENT_SET_NO": 999,
    "REV_AT_EPOCH": 15387,
    "BSTAR": 0.00015625,
    "MEAN_MOTION_DOT": 1.908e-05,
    "MEAN_MOTION_DDOT": 0.0,
    "TLE_LINE1": "1 55333U 23013C   25315.14716906  .00001908  00000+0  15625-3 0  9997",
    "TLE_LINE2": "2 55333  43.0041 224.7950 0001295 264.2359  95.8336 15.02535900153878",
    "COMMENT": "Grouped by shell and plane from TLE"
  },
  {
    "OBJECT_NAME": "STARLINK-5652",
    "OBJECT_ID": "23013D",
    "EPOCH": "2025-11-11T03:35:05.326944",
    "MEAN_MOTION": 15.02545918,
    "ECCENTRICITY": 0.0001006,
    "INCLINATION": 43.0032,
    "RA_OF_ASC_NODE": 224.7143,
    "ARG_OF_PERICENTER": 266.4664,
    "MEAN_ANOMALY": 93.6064,
    "EPHEMERIS_TYPE": 0,
    "CLASSIFICATION_TYPE": "U",
    "NORAD_CAT_ID": 55334,
    "ELEMENT_SET_NO": 999,
    "REV_AT_EPOCH": 15387,
    "BSTAR": 0.0,
    "MEAN_MOTION_DOT": -2.019e-05,
    "MEAN_MOTION_DDOT": 0.0,
    "TLE_LINE1": "1 55334U 23013D   25315.14936721 -.00002019  00000+0 -13437-3 0  9992",
    "TLE_LINE2": "2 55334  43.0032 224.7143 0001006 266.4664  93.6064 15.02545918153870",
    "COMMENT": "Grouped by shell and plane from TLE"
  },
  {
    "OBJECT_NAME": "STARLINK-5660",
    "OBJECT_ID": "23013E",
    "EPOCH": "2025-11-11T03:27:06.638112",
    "MEAN_MOTION": 15.02545935,
    "ECCENTRICITY": 0.0001115,
    "INCLINATION": 43.0029,
    "RA_OF_ASC_NODE": 224.7718,
    "ARG_OF_PERICENTER": 272.7561,
    "MEAN_ANOMALY": 87.3154,
    "EPHEMERIS_TYPE": 0,
    "CLASSIFICATION_TYPE": "U",
    "NORAD_CAT_ID": 55335,
    "ELEMENT_SET_NO": 999,
    "REV_AT_EPOCH": 15387,
    "BSTAR": 0.00013727000000000002,
    "MEAN_MOTION_DOT": 1.652e-05,
    "MEAN_MOTION_DDOT": 0.0,
    "TLE_LINE1": "1 55335U 23013E   25315.14382683  .00001652  00000+0  13727-3 0  9997",
    "TLE_LINE2": "2 55335  43.0029 224.7718 0001115 272.7561  87.3154 15.02545935153871",
    "COMMENT": "Grouped by shell and plane from TLE"
  },
  {
    "OBJECT_NAME": "STARLINK-5658",
    "OBJECT_ID": "23013H",
    "EPOCH": "2025-11-11T03:23:57.005664",
    "MEAN_MOTION": 15.02522208,
    "ECCENTRICITY": 0.0001047,
    "INCLINATION": 43.0029,
    "RA_OF_ASC_NODE": 224.7532,
    "ARG_OF_PERICENTER": 264.0681,
    "MEAN_ANOMALY": 96.0042,
    "EPHEMERIS_TYPE": 0,
    "CLASSIFICATION_TYPE": "U",
    "NORAD_CAT_ID": 55338,
    "ELEMENT_SET_NO": 999,
    "REV_AT_EPOCH": 15387,
    "BSTAR": 0.0,
    "MEAN_MOTION_DOT": -1.141e-05,
    "MEAN_MOTION_DDOT": 0.0,
    "TLE_LINE1": "1 55338U 23013H   25315.14163201 -.00001141  00000+0 -69411-4 0  9990",
    "TLE_LINE2": "2 55338  43.0029 224.7532 0001047 264.0681  96.0042 15.02522208153870",
    "COMMENT": "Grouped by shell and plane from TLE"
  }
]